{"type": "FeatureCollection", "features": [ {"type": "Feature", "properties": {"norad_id": 41469, "name": "IRNSS-1G", "group": "gnss", "lat": -2.122224724068003, "lon": -52.154224420736455, "alt_km": 35791.82613940614, "timestamp": "2025-12-27T05:29:39.445663+00:00", "meta": {"OBJECT_NAME": "IRNSS-1G", "OBJECT_ID": "2016-027A", "EPOCH": "2025-12-26T17:04:29.923680", "MEAN_MOTION": 1.00273054, "ECCENTRICITY": 0.00027274, "INCLINATION": 4.7688, "RA_OF_ASC_NODE": 101.7411, "ARG_OF_PERICENTER": 325.8838, "MEAN_ANOMALY": 53.5259, "EPHEMERIS_TYPE": 0, "CLASSIFICATION_TYPE": "U", "NORAD_CAT_ID": 41469, "ELEMENT_SET_NO": 999, "REV_AT_EPOCH": 3545, "BSTAR": 0, "MEAN_MOTION_DOT": -3.13e-06, "MEAN_MOTION_DDOT": 0}, "tle": {"line1": "1 41469U 16027A   25360.71145745 -.00000313  00000+0  00000+0 0  9996", "line2": "2 41469   4.7688 101.7411 0002727 325.8838  53.5259  1.00273054 35457"}}, "geometry": {"type": "Point", "coordinates": [-52.154224420736455, -2.122224724068003]}}, {"type": "Feature", "properties": {"norad_id": 41549, "name": "GSAT0211 (GALILEO 14)", "group": "gnss", "lat": -4.182596315163536, "lon": 49.35721092489384, "alt_km": 23234.68565465397, "timestamp": "2025-12-27T05:29:39.445674+00:00", "meta": {"OBJECT_NAME": "GSAT0211 (GALILEO 14)", "OBJECT_ID": "2016-030A", "EPOCH": "2025-12-25T18:06:09.128448", "MEAN_MOTION": 1.70473226, "ECCENTRICITY": 0.00039908, "INCLINATION": 55.1481, "RA_OF_ASC_NODE": 226.465, "ARG_OF_PERICENTER": 16.0221, "MEAN_ANOMALY": 344.0794, "EPHEMERIS_TYPE": 0, "CLASSIFICATION_TYPE": "U", "NORAD_CAT_ID": 41549, "ELEMENT_SET_NO": 999, "REV_AT_EPOCH": 5971, "BSTAR": 0, "MEAN_MOTION_DOT": 7e-07, "MEAN_MOTION_DDOT": 0}, "tle": {"line1": "1 41549U 16030A   25359.75427232  .00000070  00000+0  00000+0 0  9994", "line2": "2 41549  55.1481 226.4650 0003990  16.0221 344.0794  1.70473226 59712"}}, "geometry": {"type": "Point", "coordinates": [49.35721092489384, -4.182596315163536]}}, {"type": "Feature", "properties": {"norad_id": 41550, "name": "GSAT0210 (GALILEO 13)", "group": "gnss", "lat": 21.921215903264518, "lon": -117.28473142003796, "alt_km": 23221.24535100543, "timestamp": "2025-12-27T05:29:39.445688+00:00", "meta": {"OBJECT_NAME": "GSAT0210 (GALILEO 13)", "OBJECT_ID": "2016-030B", "EPOCH": "2025-12-26T00:16:47.841312", "MEAN_MOTION": 1.70473562, "ECCENTRICITY": 5.77e-05, "INCLINATION": 55.1475, "RA_OF_ASC_NODE": 226.456, "ARG_OF_PERICENTER": 190.7717, "MEAN_ANOMALY": 169.315, "EPHEMERIS_TYPE": 0, "CLASSIFICATION_TYPE": "U", "NORAD_CAT_ID": 41550, "ELEMENT_SET_NO": 999, "REV_AT_EPOCH": 5971, "BSTAR": 0, "MEAN_MOTION_DOT": 7e-07, "MEAN_MOTION_DDOT": 0}, "tle": {"line1": "1 41550U 16030B   25360.01166483  .00000070  00000+0  00000+0 0  9995", "line2": "2 41550  55.1475 226.4560 0000577 190.7717 169.3150  1.70473562 59712"}}, "geometry": {"type": "Point", "coordinates": [-117.28473142003796, 21.921215903264518]}}, {"type": "Feature", "properties": {"norad_id": 41586, "name": "BEIDOU-2 G7 (C03)", "group": "gnss", "lat": -1.1884270596286353, "lon": -71.2814326455062, "alt_km": 35804.13089109945, "timestamp": "2025-12-27T05:29:39.445700+00:00", "meta": {"OBJECT_NAME": "BEIDOU-2 G7 (C03)", "OBJECT_ID": "2016-037A", "EPOCH": "2025-12-26T15:50:23.467776", "MEAN_MOTION": 1.00267732, "ECCENTRICITY": 0.0005163, "INCLINATION": 1.7889, "RA_OF_ASC_NODE": 67.91, "ARG_OF_PERICENTER": 0.4521, "MEAN_ANOMALY": 15.0455, "EPHEMERIS_TYPE": 0, "CLASSIFICATION_TYPE": "U", "NORAD_CAT_ID": 41586, "ELEMENT_SET_NO": 999, "REV_AT_EPOCH": 516, "BSTAR": 0, "MEAN_MOTION_DOT": -3.31e-06, "MEAN_MOTION_DDOT": 0}, "tle": {"line1": "1 41586U 16037A   25360.65999384 -.00000331  00000+0  00000+0 0  9996", "line2": "2 41586   1.7889  67.9100 0005163   0.4521  15.0455  1.00267732  5169"}}, "geometry": {"type": "Point", "coordinates": [-71.2814326455062, -1.1884270596286353]}}, {"type": "Feature", "properties": {"norad_id": 41589, "name": "EUTELSAT 117 WEST B (WAAS/PRN 131)", "group": "gnss", "lat": -0.0022760043275206012, "lon": 61.363320516436914, "alt_km": 35785.920529570714, "timestamp": "2025-12-27T05:29:39.445712+00:00", "meta": {"OBJECT_NAME": "EUTELSAT 117 WEST B (WAAS/PRN 131)", "OBJECT_ID": "2016-038B", "EPOCH": "2025-12-26T22:44:56.725728", "MEAN_MOTION": 1.00272383, "ECCENTRICITY": 1.85e-06, "INCLINATION": 0.0117, "RA_OF_ASC_NODE": 149.0089, "ARG_OF_PERICENTER": 171.2935, "MEAN_ANOMALY": 359.6124, "EPHEMERIS_TYPE": 0, "CLASSIFICATION_TYPE": "U", "NORAD_CAT_ID": 41589, "ELEMENT_SET_NO": 999, "REV_AT_EPOCH": 3493, "BSTAR": 0, "MEAN_MOTION_DOT": 1.1e-07, "MEAN_MOTION_DDOT": 0}, "tle": {"line1": "1 41589U 16038B   25360.94787877  .00000011  00000+0  00000+0 0  9998", "line2": "2 41589   0.0117 149.0089 0000018 171.2935 359.6124  1.00272383 34931"}}, "geometry": {"type": "Point", "coordinates": [61.363320516436914, -0.0022760043275206012]}}, {"type": "Feature", "properties": {"norad_id": 41859, "name": "GSAT0207 (GALILEO 15)", "group": "gnss", "lat": -29.169141348973326, "lon": -51.51240067078431, "alt_km": 23227.279165907396, "timestamp": "2025-12-27T05:29:39.445725+00:00", "meta": {"OBJECT_NAME": "GSAT0207 (GALILEO 15)", "OBJECT_ID": "2016-069A", "EPOCH": "2025-12-22T04:24:39.710016", "MEAN_MOTION": 1.70474442, "ECCENTRICITY": 0.00024396, "INCLINATION": 55.3874, "RA_OF_ASC_NODE": 105.9888, "ARG_OF_PERICENTER": 317.4324, "MEAN_ANOMALY": 42.5257, "EPHEMERIS_TYPE": 0, "CLASSIFICATION_TYPE": "U", "NORAD_CAT_ID": 41859, "ELEMENT_SET_NO": 999, "REV_AT_EPOCH": 5638, "BSTAR": 0, "MEAN_MOTION_DOT": 6e-08, "MEAN_MOTION_DDOT": 0}, "tle": {"line1": "1 41859U 16069A   25356.18379294  .00000006  00000+0  00000+0 0  9997", "line2": "2 41859  55.3874 105.9888 0002439 317.4324  42.5257  1.70474442 56382"}}, "geometry": {"type": "Point", "coordinates": [-51.51240067078431, -29.169141348973326]}}, {"type": "Feature", "properties": {"norad_id": 41860, "name": "GSAT0212 (GALILEO 16)", "group": "gnss", "lat": -41.67592638536821, "lon": 67.96645151869102, "alt_km": 23225.238754882575, "timestamp": "2025-12-27T05:29:39.445737+00:00", "meta": {"OBJECT_NAME": "GSAT0212 (GALILEO 16)", "OBJECT_ID": "2016-069B", "EPOCH": "2025-12-26T03:26:41.871552", "MEAN_MOTION": 1.70474669, "ECCENTRICITY": 0.00020518, "INCLINATION": 55.3873, "RA_OF_ASC_NODE": 105.8745, "ARG_OF_PERICENTER": 19.1308, "MEAN_ANOMALY": 340.872, "EPHEMERIS_TYPE": 0, "CLASSIFICATION_TYPE": "U", "NORAD_CAT_ID": 41860, "ELEMENT_SET_NO": 999, "REV_AT_EPOCH": 5670, "BSTAR": 0, "MEAN_MOTION_DOT": 1.8e-07, "MEAN_MOTION_DDOT": 0}, "tle": {"line1": "1 41860U 16069B   25360.14354018  .00000018  00000+0  00000+0 0  9990", "line2": "2 41860  55.3873 105.8745 0002051  19.1308 340.8720  1.70474669 56708"}}, "geometry": {"type": "Point", "coordinates": [67.96645151869102, -41.67592638536821]}}, {"type": "Feature", "properties": {"norad_id": 41861, "name": "GSAT0213 (GALILEO 17)", "group": "gnss", "lat": 54.300269302381885, "lon": 179.53297192406984, "alt_km": 23223.778402125132, "timestamp": "2025-12-27T05:29:39.445750+00:00", "meta": {"OBJECT_NAME": "GSAT0213 (GALILEO 17)", "OBJECT_ID": "2016-069C", "EPOCH": "2025-12-25T22:11:16.691136", "MEAN_MOTION": 1.70474838, "ECCENTRICITY": 0.0002917, "INCLINATION": 55.3899, "RA_OF_ASC_NODE": 105.8882, "ARG_OF_PERICENTER": 282.7957, "MEAN_ANOMALY": 77.1667, "EPHEMERIS_TYPE": 0, "CLASSIFICATION_TYPE": "U", "NORAD_CAT_ID": 41861, "ELEMENT_SET_NO": 999, "REV_AT_EPOCH": 5656, "BSTAR": 0, "MEAN_MOTION_DOT": 1.8e-07, "MEAN_MOTION_DDOT": 0}, "tle": {"line1": "1 41861U 16069C   25359.92449874  .00000018  00000+0  00000+0 0  9990", "line2": "2 41861  55.3899 105.8882 0002917 282.7957  77.1667  1.70474838 56560"}}, "geometry": {"type": "Point", "coordinates": [179.53297192406984, 54.300269302381885]}}, {"type": "Feature", "properties": {"norad_id": 41862, "name": "GSAT0214 (GALILEO 18)", "group": "gnss", "lat": -7.440090627262988, "lon": 100.67675249882232, "alt_km": 23221.02748608126, "timestamp": "2025-12-27T05:29:39.445762+00:00", "meta": {"OBJECT_NAME": "GSAT0214 (GALILEO 18)", "OBJECT_ID": "2016-069D", "EPOCH": "2025-12-24T07:27:29.645856", "MEAN_MOTION": 1.70474781, "ECCENTRICITY": 0.00017476, "INCLINATION": 55.3867, "RA_OF_ASC_NODE": 105.9257, "ARG_OF_PERICENTER": 287.2715, "MEAN_ANOMALY": 72.6994, "EPHEMERIS_TYPE": 0, "CLASSIFICATION_TYPE": "U", "NORAD_CAT_ID": 41862, "ELEMENT_SET_NO": 999, "REV_AT_EPOCH": 5666, "BSTAR": 0, "MEAN_MOTION_DOT": 1.5e-07, "MEAN_MOTION_DDOT": 0}, "tle": {"line1": "1 41862U 16069D   25358.31075979  .00000015  00000+0  00000+0 0  9991", "line2": "2 41862  55.3867 105.9257 0001747 287.2715  72.6994  1.70474781 56666"}}, "geometry": {"type": "Point", "coordinates": [100.67675249882232, -7.440090627262988]}}, {"type": "Feature", "properties": {"norad_id": 42709, "name": "SES-15 (WAAS/PRN 133)", "group": "gnss", "lat": 0.030848112053976657, "lon": 49.19292339077641, "alt_km": 35787.66564136174, "timestamp": "2025-12-27T05:29:39.445773+00:00", "meta": {"OBJECT_NAME": "SES-15 (WAAS/PRN 133)", "OBJECT_ID": "2017-026A", "EPOCH": "2025-12-26T22:41:27.060576", "MEAN_MOTION": 1.00268205, "ECCENTRICITY": 3.085e-05, "INCLINATION": 0.0192, "RA_OF_ASC_NODE": 338.9368, "ARG_OF_PERICENTER": 312.7343, "MEAN_ANOMALY": 15.1987, "EPHEMERIS_TYPE": 0, "CLASSIFICATION_TYPE": "U", "NORAD_CAT_ID": 42709, "ELEMENT_SET_NO": 999, "REV_AT_EPOCH": 570, "BSTAR": 0, "MEAN_MOTION_DOT": 8.2e-07, "MEAN_MOTION_DDOT": 0}, "tle": {"line1": "1 42709U 17026A   25360.94545209  .00000082  00000+0  00000+0 0  9990", "line2": "2 42709   0.0192 338.9368 0000308 312.7343  15.1987  1.00268205  5707"}}, "geometry": {"type": "Point", "coordinates": [49.19292339077641, 0.030848112053976657]}}]}